GLOBALSTAR M045         
1 25676U 99019A   25317.51933382 -.00000076  00000+0  15064-3 0  9998
2 25676  51.9964 239.6383 0000837  72.9601  98.0505 12.27068175211728
GLOBALSTAR M019         
1 25677U 99019B   25317.65996492 -.00000105  00000+0 -15540-3 0  9998
2 25677  51.9910  20.1213 0001020 243.5881 284.5649 12.13879456203297
GLOBALSTAR M044         
1 25678U 99019C   25317.51824529 -.00000079  00000+0  61064-4 0  9997
2 25678  51.9994 350.5579 0006019 328.2017 200.6118 11.90259376189100
GLOBALSTAR M042         
1 25679U 99019D   25317.51172277 -.00000038  00000+0  51344-3 0  9998
2 25679  52.0037 349.4046 0002891 243.8072 264.2611 12.22090726203518
GLOBALSTAR M025         
1 25770U 99031A   25317.62193317 -.00000059  00000+0  25350-3 0  9995
2 25770  51.9776 173.0951 0003085  48.5667 324.2565 11.22558196498497
GLOBALSTAR M049         
1 25771U 99031B   25317.46233345 -.00000065  00000+0  16164-4 0  9995
2 25771  51.9856 215.7299 0002111 281.6577  78.3983 11.12122087134038
GLOBALSTAR M047         
1 25772U 99031C   25317.38907826 -.00000060  00000+0  27822-3 0  9996
2 25772  51.9805 198.6103 0016395 155.1161 205.0438 11.31931242488004
GLOBALSTAR M052         
1 25773U 99031D   25317.51305391 -.00000008  00000+0  19520-2 0  9998
2 25773  51.9886 322.1889 0002714  57.4599 114.6440 11.15061539495166
